STARLINK-30580
1 58115U 23161U   25334.99242847 -.00001941  00000+0 -53457-4 0  9999
2 58115  53.1618 263.7398 0001729  81.7922 278.3275 15.30166882119311